GIOVE-A                 
1 28922U 05051A   13110.15616264  .00000077  00000-0  00000+0 0   872
2 28922  56.3362 120.3465 0006336 348.6665  51.1593  1.69429471 45340
GIOVE-B                 
1 32781U 08020A   13108.09123713  .00000044  00000-0  10000-3 0  7170
2 32781  56.8671 155.5739 0002578 223.8897 136.1665  1.65405300 30940
GALILEO-PFM (GSAT0101)  
1 37846U 11060A   13110.11754102  .00000070  00000-0  00000+0 0  2127
2 37846  54.8736 114.4479 0005152 291.7074 165.0195  1.70474258  9314
GALILEO-FM2 (GSAT0102)  
1 37847U 11060B   13110.11882022  .00000070  00000-0  00000+0 0  2143
2 37847  54.8743 114.4463 0006291 281.2657 216.7526  1.70474547  9315
GALILEO-FM3 (GSAT0103)  
1 38857U 12055A   13110.00279685 -.00000016  00000-0  00000+0 0   805
2 38857  55.2490 234.2736 0002355 216.9136 143.0450  1.70473222  3231
GALILEO-FM4 (GSAT0104)  
1 38858U 12055B   13108.76448654 -.00000015  00000-0  00000+0 0   742
2 38858  55.2504 234.3062 0001428 209.9752 149.9936  1.70473276  3207
